{
  "type": "FeatureCollection",
  "features": [
    {
      "type": "Feature",
      "properties": {
        "name": "Test Point Feature",
        "description": "A test point location"
      },
      "geometry": {
        "type": "Point",
        "coordinates": [36.8172, -1.2921]
      }
    },
    {
      "type": "Feature",
      "properties": {
        "name": "Test Road",
        "description": "A test road segment"
      },
      "geometry": {
        "type": "LineString",
        "coordinates": [
          [36.8172, -1.2921],
          [36.82, -1.295],
          [36.823, -1.298]
        ]
      }
    },
    {
      "type": "Feature",
      "properties": {
        "name": "Test Area",
        "description": "A test polygon area"
      },
      "geometry": {
        "type": "Polygon",
        "coordinates": [
          [
            [36.81, -1.29],
            [36.82, -1.29],
            [36.82, -1.3],
            [36.81, -1.3],
            [36.81, -1.29]
          ]
        ]
      }
    }
  ]
}
