{
  "type": "FeatureCollection",
  "generator": "overpass-turbo",
  "copyright": "The data included in this document is from www.openstreetmap.org. The data is made available under ODbL.",
  "timestamp": "2026-03-16T07:19:09Z",
  "features": [
    {
      "type": "Feature",
      "properties": {
        "@id": "way/1214008273",
        "waterway": "canal"
      },
      "geometry": {
        "type": "LineString",
        "coordinates": [
          [
            36.8310432,
            -0.4999544
          ],
          [
            36.8318881,
            -0.5003531
          ],
          [
            36.8320303,
            -0.5003665
          ],
          [
            36.8322127,
            -0.5003263
          ],
          [
            36.8328698,
            -0.5001332
          ],
          [
            36.833079,
            -0.5000876
          ],
          [
            36.8333982,
            -0.5000339
          ],
          [
            36.8336074,
            -0.5000876
          ],
          [
            36.8339186,
            -0.5000393
          ],
          [
            36.8342351,
            -0.4998462
          ],
          [
            36.8343853,
            -0.4998167
          ],
          [
            36.8345676,
            -0.4998247
          ],
          [
            36.8347018,
            -0.4997443
          ],
          [
            36.834911,
            -0.4993795
          ],
          [
            36.8350344,
            -0.4992615
          ],
          [
            36.8353503,
            -0.4991096
          ],
          [
            36.8356469,
            -0.4989398
          ],
          [
            36.8358073,
            -0.4988235
          ],
          [
            36.8359143,
            -0.4987666
          ],
          [
            36.8361072,
            -0.498717
          ],
          [
            36.8367442,
            -0.4985312
          ],
          [
            36.8368643,
            -0.4984475
          ],
          [
            36.8369607,
            -0.4983993
          ],
          [
            36.8370451,
            -0.4983847
          ],
          [
            36.8371265,
            -0.4984193
          ],
          [
            36.8371893,
            -0.4984599
          ],
          [
            36.837264,
            -0.498552
          ],
          [
            36.8373461,
            -0.4986056
          ],
          [
            36.8374638,
            -0.4986449
          ],
          [
            36.837596,
            -0.4986465
          ],
          [
            36.8376863,
            -0.4986299
          ],
          [
            36.8377704,
            -0.4985622
          ],
          [
            36.8378823,
            -0.4984865
          ],
          [
            36.8381873,
            -0.498263
          ],
          [
            36.8384646,
            -0.4980316
          ],
          [
            36.8385408,
            -0.4979503
          ],
          [
            36.8385932,
            -0.4978869
          ],
          [
            36.8388166,
            -0.4974927
          ],
          [
            36.8388906,
            -0.4973459
          ],
          [
            36.8390196,
            -0.4972502
          ],
          [
            36.839114,
            -0.4971802
          ],
          [
            36.8397175,
            -0.4969495
          ],
          [
            36.8400796,
            -0.4968503
          ],
          [
            36.8407394,
            -0.4968449
          ],
          [
            36.8413295,
            -0.4968637
          ],
          [
            36.8419893,
            -0.4969307
          ],
          [
            36.8422683,
            -0.4970246
          ],
          [
            36.8424828,
            -0.4971534
          ],
          [
            36.8427221,
            -0.4974312
          ],
          [
            36.8429129,
            -0.4976528
          ],
          [
            36.8429318,
            -0.4977251
          ],
          [
            36.8429437,
            -0.4978861
          ],
          [
            36.8429576,
            -0.4981657
          ],
          [
            36.8429735,
            -0.4983045
          ],
          [
            36.8430315,
            -0.4984732
          ],
          [
            36.8431105,
            -0.4986795
          ],
          [
            36.8431123,
            -0.498763
          ],
          [
            36.8430904,
            -0.4988504
          ],
          [
            36.8430792,
            -0.4989064
          ],
          [
            36.8430837,
            -0.4989504
          ],
          [
            36.8430996,
            -0.4989994
          ],
          [
            36.8431399,
            -0.4990353
          ],
          [
            36.8432474,
            -0.499085
          ],
          [
            36.8438347,
            -0.4993106
          ],
          [
            36.8446769,
            -0.4996263
          ],
          [
            36.8449719,
            -0.499688
          ],
          [
            36.8451221,
            -0.4997738
          ],
          [
            36.8459322,
            -0.5001278
          ]
        ]
      },
      "id": "way/1214008273"
    },
    {
      "type": "Feature",
      "properties": {
        "@id": "way/1214008274",
        "layer": "-1",
        "tunnel": "culvert",
        "waterway": "canal"
      },
      "geometry": {
        "type": "LineString",
        "coordinates": [
          [
            36.8459322,
            -0.5001278
          ],
          [
            36.8476783,
            -0.5007474
          ],
          [
            36.8482094,
            -0.500793
          ],
          [
            36.84855,
            -0.5007742
          ]
        ]
      },
      "id": "way/1214008274"
    },
    {
      "type": "Feature",
      "properties": {
        "@id": "way/1214008275",
        "waterway": "canal"
      },
      "geometry": {
        "type": "LineString",
        "coordinates": [
          [
            36.8256442,
            -0.5000843
          ],
          [
            36.8257754,
            -0.5002217
          ],
          [
            36.8260543,
            -0.5003826
          ],
          [
            36.8264647,
            -0.5006455
          ],
          [
            36.8266149,
            -0.5007232
          ],
          [
            36.8267356,
            -0.5007501
          ],
          [
            36.8269421,
            -0.5007259
          ],
          [
            36.8271352,
            -0.5006642
          ],
          [
            36.8281116,
            -0.5005006
          ],
          [
            36.8282162,
            -0.5004684
          ],
          [
            36.8283288,
            -0.5004014
          ],
          [
            36.828413,
            -0.500311
          ],
          [
            36.8284675,
            -0.5002115
          ],
          [
            36.8285282,
            -0.5000638
          ],
          [
            36.8285718,
            -0.5000152
          ],
          [
            36.8286415,
            -0.5000011
          ],
          [
            36.8287312,
            -0.5000205
          ],
          [
            36.8288867,
            -0.5001117
          ],
          [
            36.829053,
            -0.500168
          ],
          [
            36.8300454,
            -0.5002539
          ],
          [
            36.830134,
            -0.5002378
          ],
          [
            36.8302171,
            -0.5001385
          ],
          [
            36.8304263,
            -0.4999588
          ],
          [
            36.8306436,
            -0.4998811
          ],
          [
            36.8308528,
            -0.499873
          ],
          [
            36.8309333,
            -0.4999025
          ],
          [
            36.8309762,
            -0.4999228
          ]
        ]
      },
      "id": "way/1214008275"
    },
    {
      "type": "Feature",
      "properties": {
        "@id": "way/1214008276",
        "layer": "-1",
        "tunnel": "culvert",
        "waterway": "canal"
      },
      "geometry": {
        "type": "LineString",
        "coordinates": [
          [
            36.8309762,
            -0.4999228
          ],
          [
            36.8310432,
            -0.4999544
          ]
        ]
      },
      "id": "way/1214008276"
    },
    {
      "type": "Feature",
      "properties": {
        "@id": "way/1214008277",
        "waterway": "canal"
      },
      "geometry": {
        "type": "LineString",
        "coordinates": [
          [
            36.8549505,
            -0.5021642
          ],
          [
            36.8550785,
            -0.5021823
          ],
          [
            36.8553709,
            -0.5020482
          ],
          [
            36.8554701,
            -0.5019061
          ],
          [
            36.8556686,
            -0.5018497
          ],
          [
            36.8558993,
            -0.5019221
          ],
          [
            36.8564035,
            -0.5018739
          ],
          [
            36.8567093,
            -0.5017693
          ],
          [
            36.8568407,
            -0.5017559
          ],
          [
            36.8569668,
            -0.5018256
          ],
          [
            36.8570687,
            -0.5019597
          ],
          [
            36.8571626,
            -0.5021448
          ],
          [
            36.8572404,
            -0.5022172
          ],
          [
            36.8574469,
            -0.5022494
          ],
          [
            36.8575515,
            -0.5021796
          ],
          [
            36.8576856,
            -0.5021126
          ],
          [
            36.8578144,
            -0.5021126
          ],
          [
            36.8581979,
            -0.5023164
          ],
          [
            36.8583401,
            -0.5023888
          ],
          [
            36.8586244,
            -0.5024344
          ],
          [
            36.8588255,
            -0.5025149
          ],
          [
            36.8589972,
            -0.502539
          ],
          [
            36.8591957,
            -0.502472
          ],
          [
            36.859413,
            -0.5023379
          ],
          [
            36.8595766,
            -0.5022386
          ],
          [
            36.8598153,
            -0.5022145
          ],
          [
            36.860054,
            -0.5022976
          ],
          [
            36.8602364,
            -0.5024237
          ],
          [
            36.8605288,
            -0.5025712
          ],
          [
            36.8607541,
            -0.5027
          ],
          [
            36.8609338,
            -0.5026812
          ],
          [
            36.8610598,
            -0.5026275
          ],
          [
            36.8611698,
            -0.5025149
          ],
          [
            36.8612825,
            -0.5024264
          ],
          [
            36.8614192,
            -0.5024022
          ],
          [
            36.8616487,
            -0.5024052
          ]
        ]
      },
      "id": "way/1214008277"
    },
    {
      "type": "Feature",
      "properties": {
        "@id": "way/1214008278",
        "waterway": "canal"
      },
      "geometry": {
        "type": "LineString",
        "coordinates": [
          [
            36.84855,
            -0.5007742
          ],
          [
            36.8486278,
            -0.5007367
          ],
          [
            36.8487083,
            -0.5007152
          ],
          [
            36.848955,
            -0.5007232
          ],
          [
            36.8491294,
            -0.5007179
          ],
          [
            36.8494271,
            -0.5006428
          ],
          [
            36.8495478,
            -0.5005865
          ],
          [
            36.8497999,
            -0.5005409
          ],
          [
            36.8499528,
            -0.5005811
          ],
          [
            36.8500869,
            -0.5007742
          ],
          [
            36.8504302,
            -0.501029
          ],
          [
            36.850846,
            -0.5012087
          ],
          [
            36.8512993,
            -0.501198
          ],
          [
            36.8515353,
            -0.501198
          ],
          [
            36.851766,
            -0.5012221
          ],
          [
            36.8522461,
            -0.5016566
          ],
          [
            36.852525,
            -0.5019409
          ],
          [
            36.8527396,
            -0.5020858
          ],
          [
            36.8531634,
            -0.5022091
          ],
          [
            36.8535845,
            -0.5021904
          ],
          [
            36.8540941,
            -0.5021072
          ],
          [
            36.8545367,
            -0.5020938
          ],
          [
            36.8548317,
            -0.5021474
          ],
          [
            36.8548464,
            -0.5021495
          ]
        ]
      },
      "id": "way/1214008278"
    },
    {
      "type": "Feature",
      "properties": {
        "@id": "way/1214008279",
        "layer": "-1",
        "tunnel": "culvert",
        "waterway": "canal"
      },
      "geometry": {
        "type": "LineString",
        "coordinates": [
          [
            36.8548464,
            -0.5021495
          ],
          [
            36.8549505,
            -0.5021642
          ]
        ]
      },
      "id": "way/1214008279"
    },
    {
      "type": "Feature",
      "properties": {
        "@id": "way/1214008280",
        "layer": "-1",
        "tunnel": "culvert",
        "waterway": "canal"
      },
      "geometry": {
        "type": "LineString",
        "coordinates": [
          [
            36.8616487,
            -0.5024052
          ],
          [
            36.8617345,
            -0.5024279
          ],
          [
            36.8617791,
            -0.5024419
          ]
        ]
      },
      "id": "way/1214008280"
    },
    {
      "type": "Feature",
      "properties": {
        "@id": "way/1214008281",
        "waterway": "canal"
      },
      "geometry": {
        "type": "LineString",
        "coordinates": [
          [
            36.8632457,
            -0.5026562
          ],
          [
            36.863844,
            -0.5025912
          ],
          [
            36.8640693,
            -0.5026222
          ],
          [
            36.8642356,
            -0.5025846
          ],
          [
            36.8645011,
            -0.5024666
          ],
          [
            36.8646969,
            -0.5024183
          ],
          [
            36.8648498,
            -0.5023996
          ],
          [
            36.8649115,
            -0.5023379
          ],
          [
            36.8650514,
            -0.5021149
          ],
          [
            36.8651824,
            -0.5020026
          ],
          [
            36.865574,
            -0.5017344
          ],
          [
            36.8656786,
            -0.5016298
          ],
          [
            36.8657805,
            -0.5015037
          ],
          [
            36.8659924,
            -0.5013428
          ],
          [
            36.8664806,
            -0.501206
          ],
          [
            36.8668963,
            -0.5010746
          ]
        ]
      },
      "id": "way/1214008281"
    },
    {
      "type": "Feature",
      "properties": {
        "@id": "way/1214008282",
        "layer": "-1",
        "tunnel": "culvert",
        "waterway": "canal"
      },
      "geometry": {
        "type": "LineString",
        "coordinates": [
          [
            36.8668963,
            -0.5010746
          ],
          [
            36.8680363,
            -0.500565
          ],
          [
            36.8684064,
            -0.5004792
          ]
        ]
      },
      "id": "way/1214008282"
    },
    {
      "type": "Feature",
      "properties": {
        "@id": "way/1214008283",
        "waterway": "canal"
      },
      "geometry": {
        "type": "LineString",
        "coordinates": [
          [
            36.8684064,
            -0.5004792
          ],
          [
            36.8685861,
            -0.5004416
          ],
          [
            36.8688382,
            -0.5004524
          ],
          [
            36.8690072,
            -0.5004711
          ],
          [
            36.8693103,
            -0.5004416
          ],
          [
            36.8696724,
            -0.5004658
          ],
          [
            36.8700104,
            -0.5004068
          ],
          [
            36.8704127,
            -0.5004577
          ],
          [
            36.8706273,
            -0.5004228
          ],
          [
            36.8709062,
            -0.5004094
          ],
          [
            36.8710967,
            -0.5004041
          ],
          [
            36.8712656,
            -0.5004926
          ],
          [
            36.8713568,
            -0.500573
          ],
          [
            36.87144,
            -0.5005838
          ],
          [
            36.8715634,
            -0.5005382
          ],
          [
            36.8718101,
            -0.5004684
          ],
          [
            36.8724539,
            -0.5003612
          ],
          [
            36.8727569,
            -0.5003826
          ],
          [
            36.8737145,
            -0.5005677
          ],
          [
            36.8740229,
            -0.5005757
          ],
          [
            36.874385,
            -0.5006401
          ],
          [
            36.874613,
            -0.5007742
          ],
          [
            36.8748947,
            -0.5009512
          ],
          [
            36.8752165,
            -0.5010183
          ],
          [
            36.8754606,
            -0.500978
          ],
          [
            36.8757315,
            -0.5010371
          ],
          [
            36.8760078,
            -0.5011524
          ],
          [
            36.8763833,
            -0.5012999
          ],
          [
            36.8766649,
            -0.5013321
          ],
          [
            36.8768419,
            -0.5013804
          ],
          [
            36.8770377,
            -0.5015225
          ],
          [
            36.8773301,
            -0.5016352
          ],
          [
            36.8776037,
            -0.5017612
          ],
          [
            36.8778397,
            -0.5019329
          ],
          [
            36.8781133,
            -0.5020482
          ],
          [
            36.8783333,
            -0.5021072
          ],
          [
            36.8784486,
            -0.5021823
          ]
        ]
      },
      "id": "way/1214008283"
    },
    {
      "type": "Feature",
      "properties": {
        "@id": "way/1343513830",
        "layer": "-1",
        "tunnel": "culvert",
        "waterway": "canal"
      },
      "geometry": {
        "type": "LineString",
        "coordinates": [
          [
            36.8629979,
            -0.5025818
          ],
          [
            36.8632457,
            -0.5026562
          ]
        ]
      },
      "id": "way/1343513830"
    }
  ]
}