{
  "type": "FeatureCollection",
  "features": [
    {
      "type": "Feature",
      "properties": {},
      "geometry": {
        "type": "Polygon",
        "coordinates": [
          [
            [
              36.878459,
              -0.502226
            ],
            [
              36.878491,
              -0.502178
            ],
            [
              36.878824,
              -0.502393
            ],
            [
              36.878765,
              -0.502473
            ],
            [
              36.878459,
              -0.502226
            ]
          ]
        ]
      }
    }
  ]
}