{
  "type": "FeatureCollection",
  "features": [
    {
      "type": "Feature",
      "geometry": {
        "type": "Polygon",
        "coordinates": [
          [
            [
              36.82436358378442,
              -0.4985645245768353
            ],
            [
              36.82460936687293,
              -0.49837227873224776
            ],
            [
              36.82467639862434,
              -0.498466166238444
            ],
            [
              36.824444021886116,
              -0.49864499957988073
            ],
            [
              36.82436358378442,
              -0.4985645245768353
            ]
          ]
        ]
      },
      "properties": {
        "editable": true,
        "source": "drawn",
        "name": "Gura intake",
        "description": "",
        "groupName": "Intake",
        "createdAt": "2026-05-14T07:14:36.947Z"
      },
      "id": "drawn-1778742843497-z1u8z97"
    }
  ]
}