{
  "type": "FeatureCollection",
  "features": [
    {
      "type": "Feature",
      "properties": {},
      "geometry": {
        "type": "LineString",
        "coordinates": [
          [
            36.880943,
            -0.500354
          ],
          [
            36.880036,
            -0.501293
          ],
          [
            36.879006,
            -0.50235
          ],
          [
            36.878931,
            -0.502403
          ],
          [
            36.878867,
            -0.50243
          ],
          [
            36.878802,
            -0.502436
          ]
        ]
      }
    }
  ]
}