{
  "type": "FeatureCollection",
  "features": [
    {
      "type": "Feature",
      "properties": {},
      "geometry": {
        "type": "Polygon",
        "coordinates": [
          [
            [
              36.880873,
              -0.500252
            ],
            [
              36.88098,
              -0.50014
            ],
            [
              36.881163,
              -0.500301
            ],
            [
              36.881028,
              -0.500424
            ],
            [
              36.880873,
              -0.500252
            ]
          ]
        ]
      }
    }
  ]
}